{"type": "FeatureCollection", "features": [ {"type": "Feature", "properties": {"norad_id": 33841, "name": "COSMOS 2251 DEB", "group": "cosmos-2251-debris", "lat": 53.40060696321411, "lon": 54.343333163564566, "alt_km": 772.8501283508485, "timestamp": "2025-12-24T03:53:30.040012+00:00", "meta": {"OBJECT_NAME": "COSMOS 2251 DEB", "OBJECT_ID": "1993-036CJ", "EPOCH": "2025-12-23T17:27:11.388096", "MEAN_MOTION": 14.37875344, "ECCENTRICITY": 0.0020972, "INCLINATION": 74.0376, "RA_OF_ASC_NODE": 257.8127, "ARG_OF_PERICENTER": 336.2105, "MEAN_ANOMALY": 56.496, "EPHEMERIS_TYPE": 0, "CLASSIFICATION_TYPE": "U", "NORAD_CAT_ID": 33841, "ELEMENT_SET_NO": 999, "REV_AT_EPOCH": 88272, "BSTAR": 0.00019464, "MEAN_MOTION_DOT": 5.62e-06, "MEAN_MOTION_DDOT": 0}, "tle": {"line1": "1 33841U 93036CJ  25357.72721514  .00000562  00000+0  19464-3 0  9990", "line2": "2 33841  74.0376 257.8127 0020972 336.2105  56.4960 14.37875344882723"}}, "geometry": {"type": "Point", "coordinates": [54.343333163564566, 53.40060696321411]}}, {"type": "Feature", "properties": {"norad_id": 33842, "name": "COSMOS 2251 DEB", "group": "cosmos-2251-debris", "lat": -34.69639345554281, "lon": 29.88416885102362, "alt_km": 753.6510597646065, "timestamp": "2025-12-24T03:53:30.040022+00:00", "meta": {"OBJECT_NAME": "COSMOS 2251 DEB", "OBJECT_ID": "1993-036CK", "EPOCH": "2025-12-23T13:34:28.350624", "MEAN_MOTION": 14.42716867, "ECCENTRICITY": 0.0047557, "INCLINATION": 74.0315, "RA_OF_ASC_NODE": 199.557, "ARG_OF_PERICENTER": 304.7552, "MEAN_ANOMALY": 54.9131, "EPHEMERIS_TYPE": 0, "CLASSIFICATION_TYPE": "U", "NORAD_CAT_ID": 33842, "ELEMENT_SET_NO": 999, "REV_AT_EPOCH": 88493, "BSTAR": 0.0002328, "MEAN_MOTION_DOT": 7.58e-06, "MEAN_MOTION_DDOT": 0}, "tle": {"line1": "1 33842U 93036CK  25357.56560591  .00000758  00000+0  23280-3 0  9997", "line2": "2 33842  74.0315 199.5570 0047557 304.7552  54.9131 14.42716867884933"}}, "geometry": {"type": "Point", "coordinates": [29.88416885102362, -34.69639345554281]}}, {"type": "Feature", "properties": {"norad_id": 33844, "name": "COSMOS 2251 DEB", "group": "cosmos-2251-debris", "lat": 39.184062457770516, "lon": -161.54019932210647, "alt_km": 774.9490174289986, "timestamp": "2025-12-24T03:53:30.040033+00:00", "meta": {"OBJECT_NAME": "COSMOS 2251 DEB", "OBJECT_ID": "1993-036CM", "EPOCH": "2025-12-23T19:25:34.154112", "MEAN_MOTION": 14.33737167, "ECCENTRICITY": 0.0047171, "INCLINATION": 74.0665, "RA_OF_ASC_NODE": 32.5689, "ARG_OF_PERICENTER": 50.9532, "MEAN_ANOMALY": 67.4785, "EPHEMERIS_TYPE": 0, "CLASSIFICATION_TYPE": "U", "NORAD_CAT_ID": 33844, "ELEMENT_SET_NO": 999, "REV_AT_EPOCH": 87884, "BSTAR": 0.00031791, "MEAN_MOTION_DOT": 8.68e-06, "MEAN_MOTION_DDOT": 0}, "tle": {"line1": "1 33844U 93036CM  25357.80942308  .00000868  00000+0  31791-3 0  9994", "line2": "2 33844  74.0665  32.5689 0047171  50.9532  67.4785 14.33737167878843"}}, "geometry": {"type": "Point", "coordinates": [-161.54019932210647, 39.184062457770516]}}, {"type": "Feature", "properties": {"norad_id": 33848, "name": "COSMOS 2251 DEB", "group": "cosmos-2251-debris", "lat": 22.58686028077742, "lon": -16.770593900822632, "alt_km": 714.4913281227136, "timestamp": "2025-12-24T03:53:30.040043+00:00", "meta": {"OBJECT_NAME": "COSMOS 2251 DEB", "OBJECT_ID": "1993-036CR", "EPOCH": "2025-12-23T16:58:54.287328", "MEAN_MOTION": 14.44133736, "ECCENTRICITY": 0.0041811, "INCLINATION": 74.0321, "RA_OF_ASC_NODE": 337.2342, "ARG_OF_PERICENTER": 29.8541, "MEAN_ANOMALY": 151.4841, "EPHEMERIS_TYPE": 0, "CLASSIFICATION_TYPE": "U", "NORAD_CAT_ID": 33848, "ELEMENT_SET_NO": 999, "REV_AT_EPOCH": 87989, "BSTAR": 0.0011234, "MEAN_MOTION_DOT": 3.867e-05, "MEAN_MOTION_DDOT": 0}, "tle": {"line1": "1 33848U 93036CR  25357.70757277  .00003867  00000+0  11234-2 0  9997", "line2": "2 33848  74.0321 337.2342 0041811  29.8541 151.4841 14.44133736879894"}}, "geometry": {"type": "Point", "coordinates": [-16.770593900822632, 22.58686028077742]}}, {"type": "Feature", "properties": {"norad_id": 33892, "name": "COSMOS 2251 DEB", "group": "cosmos-2251-debris", "lat": 2.3029833602780543, "lon": -99.44889059108709, "alt_km": 784.2372451416959, "timestamp": "2025-12-24T03:53:30.040053+00:00", "meta": {"OBJECT_NAME": "COSMOS 2251 DEB", "OBJECT_ID": "1993-036CV", "EPOCH": "2025-12-22T16:21:10.143360", "MEAN_MOTION": 14.23369632, "ECCENTRICITY": 0.0112264, "INCLINATION": 73.8025, "RA_OF_ASC_NODE": 83.9214, "ARG_OF_PERICENTER": 113.2081, "MEAN_ANOMALY": 38.3103, "EPHEMERIS_TYPE": 0, "CLASSIFICATION_TYPE": "U", "NORAD_CAT_ID": 33892, "ELEMENT_SET_NO": 999, "REV_AT_EPOCH": 87096, "BSTAR": 0.0005543209, "MEAN_MOTION_DOT": 1.316e-05, "MEAN_MOTION_DDOT": 0}, "tle": {"line1": "1 33892U 93036CV  25356.68136740  .00001316  00000+0  55432-3 0  9994", "line2": "2 33892  73.8025  83.9214 0112264 113.2081  38.3103 14.23369632870968"}}, "geometry": {"type": "Point", "coordinates": [-99.44889059108709, 2.3029833602780543]}}, {"type": "Feature", "properties": {"norad_id": 33894, "name": "COSMOS 2251 DEB", "group": "cosmos-2251-debris", "lat": -29.841554413173665, "lon": 161.0266720370862, "alt_km": 831.8788644427887, "timestamp": "2025-12-24T03:53:30.040063+00:00", "meta": {"OBJECT_NAME": "COSMOS 2251 DEB", "OBJECT_ID": "1993-036CX", "EPOCH": "2025-12-21T16:37:48.062496", "MEAN_MOTION": 13.21322128, "ECCENTRICITY": 0.05789659, "INCLINATION": 73.7665, "RA_OF_ASC_NODE": 335.2246, "ARG_OF_PERICENTER": 253.4651, "MEAN_ANOMALY": 100.2107, "EPHEMERIS_TYPE": 0, "CLASSIFICATION_TYPE": "U", "NORAD_CAT_ID": 33894, "ELEMENT_SET_NO": 999, "REV_AT_EPOCH": 80826, "BSTAR": 0.00065478931, "MEAN_MOTION_DOT": 6.27e-06, "MEAN_MOTION_DDOT": 0}, "tle": {"line1": "1 33894U 93036CX  25355.69291739  .00000627  00000+0  65479-3 0  9992", "line2": "2 33894  73.7665 335.2246 0578965 253.4651 100.2107 13.21322128808264"}}, "geometry": {"type": "Point", "coordinates": [161.0266720370862, -29.841554413173665]}}, {"type": "Feature", "properties": {"norad_id": 33896, "name": "COSMOS 2251 DEB", "group": "cosmos-2251-debris", "lat": 64.28089268825616, "lon": 173.16487003497357, "alt_km": 866.857240367538, "timestamp": "2025-12-24T03:53:30.040073+00:00", "meta": {"OBJECT_NAME": "COSMOS 2251 DEB", "OBJECT_ID": "1993-036CZ", "EPOCH": "2025-12-23T19:26:24.255744", "MEAN_MOTION": 14.19062722, "ECCENTRICITY": 0.0127126, "INCLINATION": 73.7663, "RA_OF_ASC_NODE": 136.5849, "ARG_OF_PERICENTER": 310.487, "MEAN_ANOMALY": 119.758, "EPHEMERIS_TYPE": 0, "CLASSIFICATION_TYPE": "U", "NORAD_CAT_ID": 33896, "ELEMENT_SET_NO": 999, "REV_AT_EPOCH": 86897, "BSTAR": 0.00052827, "MEAN_MOTION_DOT": 1.168e-05, "MEAN_MOTION_DDOT": 0}, "tle": {"line1": "1 33896U 93036CZ  25357.81000296  .00001168  00000+0  52827-3 0  9990", "line2": "2 33896  73.7663 136.5849 0127126 310.4870 119.7580 14.19062722868974"}}, "geometry": {"type": "Point", "coordinates": [173.16487003497357, 64.28089268825616]}}, {"type": "Feature", "properties": {"norad_id": 33899, "name": "COSMOS 2251 DEB", "group": "cosmos-2251-debris", "lat": 19.26761667420715, "lon": 69.64559356719931, "alt_km": 697.6468399257865, "timestamp": "2025-12-24T03:53:30.040084+00:00", "meta": {"OBJECT_NAME": "COSMOS 2251 DEB", "OBJECT_ID": "1993-036DC", "EPOCH": "2025-12-23T04:56:20.200704", "MEAN_MOTION": 14.61273116, "ECCENTRICITY": 0.00560704, "INCLINATION": 74.0534, "RA_OF_ASC_NODE": 65.7354, "ARG_OF_PERICENTER": 125.3486, "MEAN_ANOMALY": 266.4842, "EPHEMERIS_TYPE": 0, "CLASSIFICATION_TYPE": "U", "NORAD_CAT_ID": 33899, "ELEMENT_SET_NO": 999, "REV_AT_EPOCH": 88992, "BSTAR": 0.00080777579, "MEAN_MOTION_DOT": 4.048e-05, "MEAN_MOTION_DDOT": 0}, "tle": {"line1": "1 33899U 93036DC  25357.20578936  .00004048  00000+0  80778-3 0  9993", "line2": "2 33899  74.0534  65.7354 0056070 125.3486 266.4842 14.61273116889924"}}, "geometry": {"type": "Point", "coordinates": [69.64559356719931, 19.26761667420715]}}, {"type": "Feature", "properties": {"norad_id": 33900, "name": "COSMOS 2251 DEB", "group": "cosmos-2251-debris", "lat": -57.80948614807208, "lon": -48.9827306840644, "alt_km": 737.6086613266862, "timestamp": "2025-12-24T03:53:30.040094+00:00", "meta": {"OBJECT_NAME": "COSMOS 2251 DEB", "OBJECT_ID": "1993-036DD", "EPOCH": "2025-12-23T18:35:48.639264", "MEAN_MOTION": 14.58383722, "ECCENTRICITY": 0.004639, "INCLINATION": 74.0183, "RA_OF_ASC_NODE": 338.8367, "ARG_OF_PERICENTER": 127.7063, "MEAN_ANOMALY": 298.1081, "EPHEMERIS_TYPE": 0, "CLASSIFICATION_TYPE": "U", "NORAD_CAT_ID": 33900, "ELEMENT_SET_NO": 999, "REV_AT_EPOCH": 89197, "BSTAR": 0.00035222, "MEAN_MOTION_DOT": 1.626e-05, "MEAN_MOTION_DDOT": 0}, "tle": {"line1": "1 33900U 93036DD  25357.77486851  .00001626  00000+0  35222-3 0  9995", "line2": "2 33900  74.0183 338.8367 0046390 127.7063 298.1081 14.58383722891972"}}, "geometry": {"type": "Point", "coordinates": [-48.9827306840644, -57.80948614807208]}}, {"type": "Feature", "properties": {"norad_id": 33901, "name": "COSMOS 2251 DEB", "group": "cosmos-2251-debris", "lat": 29.82793855189574, "lon": -164.51553756355716, "alt_km": 492.44674265266985, "timestamp": "2025-12-24T03:53:30.040104+00:00", "meta": {"OBJECT_NAME": "COSMOS 2251 DEB", "OBJECT_ID": "1993-036DE", "EPOCH": "2025-12-23T19:19:31.814112", "MEAN_MOTION": 15.17043147, "ECCENTRICITY": 0.0029829, "INCLINATION": 73.7738, "RA_OF_ASC_NODE": 25.8528, "ARG_OF_PERICENTER": 156.3625, "MEAN_ANOMALY": 203.8948, "EPHEMERIS_TYPE": 0, "CLASSIFICATION_TYPE": "U", "NORAD_CAT_ID": 33901, "ELEMENT_SET_NO": 999, "REV_AT_EPOCH": 89681, "BSTAR": 0.0025147, "MEAN_MOTION_DOT": 0.00050647, "MEAN_MOTION_DDOT": 0}, "tle": {"line1": "1 33901U 93036DE  25357.80522933  .00050647  00000+0  25147-2 0  9993", "line2": "2 33901  73.7738  25.8528 0029829 156.3625 203.8948 15.17043147896810"}}, "geometry": {"type": "Point", "coordinates": [-164.51553756355716, 29.82793855189574]}}]}